CTC2_L_00646007-03
1 37023U 25823EH  26070.40851852  .00000000  00000+0  00000-0 0  9992
2 37023  50.0000 180.0000 0000000   0.0000 144.0000  3.78963984    18
CTC2_L_00646007-04
1 37024U 24710VB  26070.40851852  .00000000  00000+0  00000-0 0  9997
2 37024  50.0000 180.0000 0000000   0.0000 180.0000  3.78963984    19
CTC2_L_00646007-05
1 37025U 26993Y   26070.40851852  .00000000  00000+0  00000-0 0  9993
2 37025  50.0000 180.0000 0000000   0.0000 216.0000  3.78963984    10
CTC2_L_00646007-06
1 37026U 24810QK  26070.40851852  .00000000  00000+0  00000-0 0  9990
2 37026  50.0000 180.0000 0000000   0.0000 252.0000  3.78963984    11
CTC2_L_00646007-07
1 37027U 25307FY  26070.40851852  .00000000  00000+0  00000-0 0  9993
2 37027  50.0000 180.0000 0000000   0.0000 288.0000  3.78963984    11
CTC2_L_00646007-08
1 37028U 24837NF  26070.40851852  .00000000  00000+0  00000-0 0  9991
2 37028  50.0000 180.0000 0000000   0.0000 324.0000  3.78963984    13
CTC2_L_00646007-09
1 37029U 25495JI  26070.40851852  .00000000  00000+0  00000-0 0  9993
2 37029  50.0000 180.0000 0000000   0.0000   0.0000  3.78963984    15
CTC2_L_00646007-10
1 37030U 23030DE  26070.40851852  .00000000  00000+0  00000-0 0  9998
2 37030  50.0000 180.0000 0000000   0.0000  36.0000  3.78963984    16
CTC2_L_00646008-01
1 37031U 24633YY  26070.40851852  .00000000  00000+0  00000-0 0  9999
2 37031  50.0000 210.0000 0000000   0.0000  84.0000  3.78963984    14
CTC2_L_00646008-02
1 37032U 24072CZ  26070.40851852  .00000000  00000+0  00000-0 0  9997
2 37032  50.0000 210.0000 0000000   0.0000 120.0000  3.78963984    16
CTC2_L_00646008-03
1 37033U 26465FR  26070.40851852  .00000000  00000+0  00000-0 0  9996
2 37033  50.0000 210.0000 0000000   0.0000 156.0000  3.78963984    16
CTC2_L_00646008-04
1 37034U 22362QB  26070.40851852  .00000000  00000+0  00000-0 0  9999
2 37034  50.0000 210.0000 0000000   0.0000 192.0000  3.78963984    17
CTC2_L_00646008-05
1 37035U 26682J   26070.40851852  .00000000  00000+0  00000-0 0  9999
2 37035  50.0000 210.0000 0000000   0.0000 228.0000  3.78963984    18
CTC2_L_00646008-06
1 37036U 25291BF  26070.40851852  .00000000  00000+0  00000-0 0  9995
2 37036  50.0000 210.0000 0000000   0.0000 264.0000  3.78963984    19
CTC2_L_00646008-07
1 37037U 23165ZW  26070.40851852  .00000000  00000+0  00000-0 0  9994
2 37037  50.0000 210.0000 0000000   0.0000 300.0000  3.78963984    11
CTC2_L_00646008-08
1 37038U 23020NE  26070.40851852  .00000000  00000+0  00000-0 0  9995
2 37038  50.0000 210.0000 0000000   0.0000 336.0000  3.78963984    11
CTC2_L_00646008-09
1 37039U 23205AZ  26070.40851852  .00000000  00000+0  00000-0 0  9991
2 37039  50.0000 210.0000 0000000   0.0000  12.0000  3.78963984    13
CTC2_L_00646008-10
1 37040U 22597OE  26070.40851852  .00000000  00000+0  00000-0 0  9996
2 37040  50.0000 210.0000 0000000   0.0000  48.0000  3.78963984    14
CTC2_L_00646009-01
1 37041U 26489SF  26070.40851852  .00000000  00000+0  00000-0 0  9991
2 37041  50.0000 240.0000 0000000   0.0000  96.0000  3.78963984    11
CTC2_L_00646009-02
1 37042U 22990IM  26070.40851852  .00000000  00000+0  00000-0 0  9995
2 37042  50.0000 240.0000 0000000   0.0000 132.0000  3.78963984    13
CTC2_L_00646009-03
1 37043U 26885XD  26070.40851852  .00000000  00000+0  00000-0 0  9993
2 37043  50.0000 240.0000 0000000   0.0000 168.0000  3.78963984    13
CTC2_L_00646009-04
1 37044U 24463QE  26070.40851852  .00000000  00000+0  00000-0 0  9994
2 37044  50.0000 240.0000 0000000   0.0000 204.0000  3.78963984    15
CTC2_L_00646009-05
1 37045U 26928SD  26070.40851852  .00000000  00000+0  00000-0 0  9993
2 37045  50.0000 240.0000 0000000   0.0000 240.0000  3.78963984    16
CTC2_L_00646009-06
1 37046U 25702ZP  26070.40851852  .00000000  00000+0  00000-0 0  9993
2 37046  50.0000 240.0000 0000000   0.0000 276.0000  3.78963984    16
CTC2_L_00646009-07
1 37047U 23034ZV  26070.40851852  .00000000  00000+0  00000-0 0  9990
2 37047  50.0000 240.0000 0000000   0.0000 312.0000  3.78963984    18
CTC2_L_00646009-08
1 37048U 25154PM  26070.40851852  .00000000  00000+0  00000-0 0  9996
2 37048  50.0000 240.0000 0000000   0.0000 348.0000  3.78963984    18
CTC2_L_00646009-09
1 37049U 25720CX  26070.40851852  .00000000  00000+0  00000-0 0  9996
2 37049  50.0000 240.0000 0000000   0.0000  24.0000  3.78963984    10
CTC2_L_00646009-10
1 37050U 22440EU  26070.40851852  .00000000  00000+0  00000-0 0  9994
2 37050  50.0000 240.0000 0000000   0.0000  60.0000  3.78963984    12
CTC2_L_00646010-01
1 37051U 26695XU  26070.40851852  .00000000  00000+0  00000-0 0  9991
2 37051  50.0000 270.0000 0000000   0.0000 108.0000  3.78963984    19
CTC2_L_00646010-02
1 37052U 22042IJ  26070.40851852  .00000000  00000+0  00000-0 0  9994
2 37052  50.0000 270.0000 0000000   0.0000 144.0000  3.78963984    10
CTC2_L_00646010-03
1 37053U 24711MG  26070.40851852  .00000000  00000+0  00000-0 0  9990
2 37053  50.0000 270.0000 0000000   0.0000 180.0000  3.78963984    11
CTC2_L_00646010-04
1 37054U 24408IL  26070.40851852  .00000000  00000+0  00000-0 0  9994
2 37054  50.0000 270.0000 0000000   0.0000 216.0000  3.78963984    12
CTC2_L_00646010-05
1 37055U 26771UV  26070.40851852  .00000000  00000+0  00000-0 0  9990
2 37055  50.0000 270.0000 0000000   0.0000 252.0000  3.78963984    13
CTC2_L_00646010-06
1 37056U 22441EJ  26070.40851852  .00000000  00000+0  00000-0 0  9991
2 37056  50.0000 270.0000 0000000   0.0000 288.0000  3.78963984    13
CTC2_L_00646010-07
1 37057U 24169YN  26070.40851852  .00000000  00000+0  00000-0 0  9991
2 37057  50.0000 270.0000 0000000   0.0000 324.0000  3.78963984    15
CTC2_L_00646010-08
1 37058U 24059EM  26070.40851852  .00000000  00000+0  00000-0 0  9990
2 37058  50.0000 270.0000 0000000   0.0000   0.0000  3.78963984    17
CTC2_L_00646010-09
1 37059U 26067EN  26070.40851852  .00000000  00000+0  00000-0 0  9992
2 37059  50.0000 270.0000 0000000   0.0000  36.0000  3.78963984    17
CTC2_L_00646010-10
1 37060U 25877CJ  26070.40851852  .00000000  00000+0  00000-0 0  9992
2 37060  50.0000 270.0000 0000000   0.0000  72.0000  3.78963984    19
CTC2_L_00646011-01
1 37061U 22011TT  26070.40851852  .00000000  00000+0  00000-0 0  9990
2 37061  50.0000 300.0000 0000000   0.0000 120.0000  3.78963984    18
CTC2_L_00646011-02
1 37062U 26265JS  26070.40851852  .00000000  00000+0  00000-0 0  9996
2 37062  50.0000 300.0000 0000000   0.0000 156.0000  3.78963984    18
CTC2_L_00646011-03
1 37063U 24139O   26070.40851852  .00000000  00000+0  00000-0 0  9995
2 37063  50.0000 300.0000 0000000   0.0000 192.0000  3.78963984    19
CTC2_L_00646011-04
1 37064U 26276EB  26070.40851852  .00000000  00000+0  00000-0 0  9990
2 37064  50.0000 300.0000 0000000   0.0000 228.0000  3.78963984    10
CTC2_L_00646011-05
1 37065U 24028PS  26070.40851852  .00000000  00000+0  00000-0 0  9994
2 37065  50.0000 300.0000 0000000   0.0000 264.0000  3.78963984    11
CTC2_L_00646011-06
1 37066U 23316RU  26070.40851852  .00000000  00000+0  00000-0 0  9994
2 37066  50.0000 300.0000 0000000   0.0000 300.0000  3.78963984    13
CTC2_L_00646011-07
1 37067U 23227UL  26070.40851852  .00000000  00000+0  00000-0 0  9996
2 37067  50.0000 300.0000 0000000   0.0000 336.0000  3.78963984    13
CTC2_L_00646011-08
1 37068U 26850MS  26070.40851852  .00000000  00000+0  00000-0 0  9992
2 37068  50.0000 300.0000 0000000   0.0000  12.0000  3.78963984    15
CTC2_L_00646011-09
1 37069U 23352LI  26070.40851852  .00000000  00000+0  00000-0 0  9997
2 37069  50.0000 300.0000 0000000   0.0000  48.0000  3.78963984    15
CTC2_L_00646011-10
1 37070U 26667RF  26070.40851852  .00000000  00000+0  00000-0 0  9991
2 37070  50.0000 300.0000 0000000   0.0000  84.0000  3.78963984    17
CTC2_L_00646012-01
1 37071U 25266JH  26070.40851852  .00000000  00000+0  00000-0 0  9996
2 37071  50.0000 330.0000 0000000   0.0000 132.0000  3.78963984    15
CTC2_L_00646012-02
1 37072U 24118TE  26070.40851852  .00000000  00000+0  00000-0 0  9992
2 37072  50.0000 330.0000 0000000   0.0000 168.0000  3.78963984    15
CTC2_L_00646012-03
1 37073U 25527IA  26070.40851852  .00000000  00000+0  00000-0 0  9998
2 37073  50.0000 330.0000 0000000   0.0000 204.0000  3.78963984    17
CTC2_L_00646012-04
1 37074U 23434LE  26070.40851852  .00000000  00000+0  00000-0 0  9994
2 37074  50.0000 330.0000 0000000   0.0000 240.0000  3.78963984    18
CTC2_L_00646012-05
1 37075U 26993OU  26070.40851852  .00000000  00000+0  00000-0 0  9998
2 37075  50.0000 330.0000 0000000   0.0000 276.0000  3.78963984    18
CTC2_L_00646012-06
1 37076U 24087F   26070.40851852  .00000000  00000+0  00000-0 0  9991
2 37076  50.0000 330.0000 0000000   0.0000 312.0000  3.78963984    10
CTC2_L_00646012-07
1 37077U 23284CK  26070.40851852  .00000000  00000+0  00000-0 0  9990
2 37077  50.0000 330.0000 0000000   0.0000 348.0000  3.78963984    10
CTC2_L_00646012-08
1 37078U 22100GA  26070.40851852  .00000000  00000+0  00000-0 0  9997
2 37078  50.0000 330.0000 0000000   0.0000  24.0000  3.78963984    12
CTC2_L_00646012-09
1 37079U 22027KP  26070.40851852  .00000000  00000+0  00000-0 0  9996
2 37079  50.0000 330.0000 0000000   0.0000  60.0000  3.78963984    13
CTC2_L_00646012-10
1 37080U 22509BG  26070.40851852  .00000000  00000+0  00000-0 0  9993
2 37080  50.0000 330.0000 0000000   0.0000  96.0000  3.78963984    14
